[{"OBJECT_NAME":"IRIDIUM 154","OBJECT_ID":"2018-061F","EPOCH":"2026-03-09T19:28:30.566496","MEAN_MOTION":14.34219109,"ECCENTRICITY":0.00022519,"INCLINATION":86.3916,"RA_OF_ASC_NODE":98.3738,"ARG_OF_PERICENTER":97.8524,"MEAN_ANOMALY":262.2928,"EPHEMERIS_TYPE":0,"CLASSIFICATION_TYPE":"U","NORAD_CAT_ID":43574,"ELEMENT_SET_NO":999,"REV_AT_EPOCH":39916,"BSTAR":1.1681552e-5,"MEAN_MOTION_DOT":5.3e-7,"MEAN_MOTION_DDOT":0},{"OBJECT_NAME":"FENGYUN 1C DEB","OBJECT_ID":"1999-025ACG","EPOCH":"2026-03-09T22:50:51.866016","MEAN_MOTION":14.12146588,"ECCENTRICITY":0.00985163,"INCLINATION":98.7274,"RA_OF_ASC_NODE":68.967,"ARG_OF_PERICENTER":308.5346,"MEAN_ANOMALY":119.1578,"EPHEMERIS_TYPE":0,"CLASSIFICATION_TYPE":"U","NORAD_CAT_ID":30369,"ELEMENT_SET_NO":999,"REV_AT_EPOCH":98477,"BSTAR":0.00028702667,"MEAN_MOTION_DOT":5.08e-6,"MEAN_MOTION_DDOT":0}]
